KUIPER-00096            
1 65135U 25171D   26186.51698816  .00002338  00000+0  33563-3 0  9991
2 65135  51.8979 357.0396 0001028 116.3263 243.7805 14.79932009 50342
KUIPER-00097            
1 65136U 25171E   26186.51430847  .00005943  00000+0  80768-3 0  9994
2 65136  51.9022 359.7070 0000618 103.0899 257.0133 14.79940498 50290
KUIPER-00098            
1 65137U 25171F   26186.51159540  .00003491  00000+0  48664-3 0  9998
2 65137  51.9010   2.0846 0000567 103.4202 256.6824 14.79936715 49615
KUIPER-00099            
1 65138U 25171G   26186.48861827  .00002399  00000+0  34354-3 0  9990
2 65138  51.9027 352.1898 0000736 106.6778 253.4265 14.79935717 50405
KUIPER-00102            
1 65140U 25171J   26186.45484102  .00002455  00000+0  35096-3 0  9994
2 65140  51.8976 352.2996 0000611  77.3595 282.7436 14.79928829 50392
KUIPER-00103            
1 65141U 25171K   26186.53726716  .00002005  00000+0  29191-3 0  9994
2 65141  51.8993   9.4338 0000869 106.3310 253.7748 14.79934817 50169
KUIPER-00105            
1 65143U 25171M   26186.50890820  .00002753  00000+0  38996-3 0  9994
2 65143  51.8996   4.6583 0000734 107.9557 252.1486 14.79931354 50237
KUIPER-00106            
1 65144U 25171N   26186.42209511  .00006445  00000+0  87348-3 0  9994
2 65144  51.9021 343.8044 0000580  95.3022 264.8007 14.79936142 50525
KUIPER-00107            
1 65145U 25171P   26186.46024702  .00003749  00000+0  52048-3 0  9999
2 65145  51.9021 347.3155 0000508 108.9903 251.1114 14.79934017 50478
KUIPER-00108            
1 65146U 25171Q   26186.48053394  .00002282  00000+0  32822-3 0  9990
2 65146  51.9019 359.7609 0000684 101.5000 258.6039 14.79931386 50305
KUIPER-00109            
1 65147U 25171R   26185.77683751  .00007112  00000+0  96056-3 0  9994
2 65147  51.9048 357.8150 0000690  94.0396 266.0645 14.79950051 50260
KUIPER-00110            
1 65148U 25171S   26186.47244487  .00003744  00000+0  51982-3 0  9998
2 65148  51.8986   7.3001 0000887 107.0316 253.0744 14.79936653 50187
KUIPER-00111            
1 65149U 25171T   26186.56832619  .00002797  00000+0  39574-3 0  9999
2 65149  51.8984  11.7561 0000603 107.0134 253.0895 14.79928400 50133
KUIPER-00112            
1 65150U 25171U   26186.48592487  .00003087  00000+0  43375-3 0  9995
2 65150  51.9023 354.7287 0000561 114.6837 245.4184 14.79932303 50360
