{"fetched_at":"2026-07-06T08:46:35.713Z","source":"https://celestrak.org/NORAD/elements/gp.php?GROUP=kuiper&FORMAT=JSON","constellation":"kuiper","records":[{"OBJECT_NAME":"KUIPER-00096","OBJECT_ID":"2025-171D","EPOCH":"2026-07-05T12:24:27.777024","CLASSIFICATION_TYPE":"U","MEAN_MOTION":14.79932009,"ECCENTRICITY":0.0001029,"INCLINATION":51.8979,"RA_OF_ASC_NODE":357.0396,"ARG_OF_PERICENTER":116.3263,"MEAN_ANOMALY":243.7805,"EPHEMERIS_TYPE":0,"NORAD_CAT_ID":65135,"ELEMENT_SET_NO":999,"REV_AT_EPOCH":5034,"BSTAR":0.00033563,"MEAN_MOTION_DOT":0.00002338,"MEAN_MOTION_DDOT":0},{"OBJECT_NAME":"KUIPER-00097","OBJECT_ID":"2025-171E","EPOCH":"2026-07-05T12:20:36.250944","CLASSIFICATION_TYPE":"U","MEAN_MOTION":14.79940498,"ECCENTRICITY":0.0000619,"INCLINATION":51.9022,"RA_OF_ASC_NODE":359.707,"ARG_OF_PERICENTER":103.0899,"MEAN_ANOMALY":257.0133,"EPHEMERIS_TYPE":0,"NORAD_CAT_ID":65136,"ELEMENT_SET_NO":999,"REV_AT_EPOCH":5029,"BSTAR":0.00080768,"MEAN_MOTION_DOT":0.00005943,"MEAN_MOTION_DDOT":0},{"OBJECT_NAME":"KUIPER-00098","OBJECT_ID":"2025-171F","EPOCH":"2026-07-05T12:16:41.841696","CLASSIFICATION_TYPE":"U","MEAN_MOTION":14.79936715,"ECCENTRICITY":0.0000567,"INCLINATION":51.901,"RA_OF_ASC_NODE":2.0846,"ARG_OF_PERICENTER":103.4202,"MEAN_ANOMALY":256.6824,"EPHEMERIS_TYPE":0,"NORAD_CAT_ID":65137,"ELEMENT_SET_NO":999,"REV_AT_EPOCH":4961,"BSTAR":0.00048664,"MEAN_MOTION_DOT":0.00003491,"MEAN_MOTION_DDOT":0},{"OBJECT_NAME":"KUIPER-00099","OBJECT_ID":"2025-171G","EPOCH":"2026-07-05T11:43:36.617664","CLASSIFICATION_TYPE":"U","MEAN_MOTION":14.79935717,"ECCENTRICITY":0.0000736,"INCLINATION":51.9027,"RA_OF_ASC_NODE":352.1898,"ARG_OF_PERICENTER":106.6778,"MEAN_ANOMALY":253.4265,"EPHEMERIS_TYPE":0,"NORAD_CAT_ID":65138,"ELEMENT_SET_NO":999,"REV_AT_EPOCH":5040,"BSTAR":0.00034354,"MEAN_MOTION_DOT":0.00002399,"MEAN_MOTION_DDOT":0},{"OBJECT_NAME":"KUIPER-00102","OBJECT_ID":"2025-171J","EPOCH":"2026-07-05T10:54:58.264128","CLASSIFICATION_TYPE":"U","MEAN_MOTION":14.79928829,"ECCENTRICITY":0.0000612,"INCLINATION":51.8976,"RA_OF_ASC_NODE":352.2996,"ARG_OF_PERICENTER":77.3595,"MEAN_ANOMALY":282.7436,"EPHEMERIS_TYPE":0,"NORAD_CAT_ID":65140,"ELEMENT_SET_NO":999,"REV_AT_EPOCH":5039,"BSTAR":0.00035096,"MEAN_MOTION_DOT":0.00002455,"MEAN_MOTION_DDOT":0},{"OBJECT_NAME":"KUIPER-00103","OBJECT_ID":"2025-171K","EPOCH":"2026-07-05T12:53:39.881760","CLASSIFICATION_TYPE":"U","MEAN_MOTION":14.79934817,"ECCENTRICITY":0.0000869,"INCLINATION":51.8993,"RA_OF_ASC_NODE":9.4338,"ARG_OF_PERICENTER":106.331,"MEAN_ANOMALY":253.7748,"EPHEMERIS_TYPE":0,"NORAD_CAT_ID":65141,"ELEMENT_SET_NO":999,"REV_AT_EPOCH":5016,"BSTAR":0.00029191,"MEAN_MOTION_DOT":0.00002005,"MEAN_MOTION_DDOT":0},{"OBJECT_NAME":"KUIPER-00105","OBJECT_ID":"2025-171M","EPOCH":"2026-07-05T12:12:49.667616","CLASSIFICATION_TYPE":"U","MEAN_MOTION":14.79931354,"ECCENTRICITY":0.0000734,"INCLINATION":51.8996,"RA_OF_ASC_NODE":4.6583,"ARG_OF_PERICENTER":107.9557,"MEAN_ANOMALY":252.1486,"EPHEMERIS_TYPE":0,"NORAD_CAT_ID":65143,"ELEMENT_SET_NO":999,"REV_AT_EPOCH":5023,"BSTAR":0.00038996,"MEAN_MOTION_DOT":0.00002753,"MEAN_MOTION_DDOT":0},{"OBJECT_NAME":"KUIPER-00106","OBJECT_ID":"2025-171N","EPOCH":"2026-07-05T10:07:49.016640","CLASSIFICATION_TYPE":"U","MEAN_MOTION":14.79936142,"ECCENTRICITY":0.0000581,"INCLINATION":51.9021,"RA_OF_ASC_NODE":343.8044,"ARG_OF_PERICENTER":95.3022,"MEAN_ANOMALY":264.8007,"EPHEMERIS_TYPE":0,"NORAD_CAT_ID":65144,"ELEMENT_SET_NO":999,"REV_AT_EPOCH":5052,"BSTAR":0.00087348,"MEAN_MOTION_DOT":0.00006445,"MEAN_MOTION_DDOT":0},{"OBJECT_NAME":"KUIPER-00107","OBJECT_ID":"2025-171P","EPOCH":"2026-07-05T11:02:45.341664","CLASSIFICATION_TYPE":"U","MEAN_MOTION":14.79934017,"ECCENTRICITY":0.0000508,"INCLINATION":51.9021,"RA_OF_ASC_NODE":347.3155,"ARG_OF_PERICENTER":108.9903,"MEAN_ANOMALY":251.1114,"EPHEMERIS_TYPE":0,"NORAD_CAT_ID":65145,"ELEMENT_SET_NO":999,"REV_AT_EPOCH":5047,"BSTAR":0.00052048,"MEAN_MOTION_DOT":0.00003749,"MEAN_MOTION_DDOT":0},{"OBJECT_NAME":"KUIPER-00108","OBJECT_ID":"2025-171Q","EPOCH":"2026-07-05T11:31:58.132416","CLASSIFICATION_TYPE":"U","MEAN_MOTION":14.79931386,"ECCENTRICITY":0.0000685,"INCLINATION":51.9019,"RA_OF_ASC_NODE":359.7609,"ARG_OF_PERICENTER":101.5,"MEAN_ANOMALY":258.6039,"EPHEMERIS_TYPE":0,"NORAD_CAT_ID":65146,"ELEMENT_SET_NO":999,"REV_AT_EPOCH":5030,"BSTAR":0.00032822,"MEAN_MOTION_DOT":0.00002282,"MEAN_MOTION_DDOT":0},{"OBJECT_NAME":"KUIPER-00109","OBJECT_ID":"2025-171R","EPOCH":"2026-07-04T18:38:38.760864","CLASSIFICATION_TYPE":"U","MEAN_MOTION":14.79950051,"ECCENTRICITY":0.00006905,"INCLINATION":51.9048,"RA_OF_ASC_NODE":357.815,"ARG_OF_PERICENTER":94.0396,"MEAN_ANOMALY":266.0645,"EPHEMERIS_TYPE":0,"NORAD_CAT_ID":65147,"ELEMENT_SET_NO":999,"REV_AT_EPOCH":5026,"BSTAR":0.00096056363,"MEAN_MOTION_DOT":0.00007112,"MEAN_MOTION_DDOT":0},{"OBJECT_NAME":"KUIPER-00110","OBJECT_ID":"2025-171S","EPOCH":"2026-07-05T11:20:19.235904","CLASSIFICATION_TYPE":"U","MEAN_MOTION":14.79936653,"ECCENTRICITY":0.0000888,"INCLINATION":51.8986,"RA_OF_ASC_NODE":7.3001,"ARG_OF_PERICENTER":107.0316,"MEAN_ANOMALY":253.0744,"EPHEMERIS_TYPE":0,"NORAD_CAT_ID":65148,"ELEMENT_SET_NO":999,"REV_AT_EPOCH":5018,"BSTAR":0.00051982,"MEAN_MOTION_DOT":0.00003744,"MEAN_MOTION_DDOT":0},{"OBJECT_NAME":"KUIPER-00111","OBJECT_ID":"2025-171T","EPOCH":"2026-07-05T13:38:23.382816","CLASSIFICATION_TYPE":"U","MEAN_MOTION":14.799284,"ECCENTRICITY":0.00006033,"INCLINATION":51.8984,"RA_OF_ASC_NODE":11.7561,"ARG_OF_PERICENTER":107.0134,"MEAN_ANOMALY":253.0895,"EPHEMERIS_TYPE":0,"NORAD_CAT_ID":65149,"ELEMENT_SET_NO":999,"REV_AT_EPOCH":5013,"BSTAR":0.00039573794,"MEAN_MOTION_DOT":0.00002797,"MEAN_MOTION_DDOT":0},{"OBJECT_NAME":"KUIPER-00112","OBJECT_ID":"2025-171U","EPOCH":"2026-07-05T11:39:43.907904","CLASSIFICATION_TYPE":"U","MEAN_MOTION":14.79932303,"ECCENTRICITY":0.0000561,"INCLINATION":51.9023,"RA_OF_ASC_NODE":354.7287,"ARG_OF_PERICENTER":114.6837,"MEAN_ANOMALY":245.4184,"EPHEMERIS_TYPE":0,"NORAD_CAT_ID":65150,"ELEMENT_SET_NO":999,"REV_AT_EPOCH":5036,"BSTAR":0.00043375,"MEAN_MOTION_DOT":0.00003087,"MEAN_MOTION_DDOT":0}]}
